{
  "norad_id": 65858,
  "name": "STARLINK-35199",
  "history": [
    {
      "epoch": "2026-03-28T17:41:54.250944Z",
      "apogee_km": 475.9491766052661,
      "perigee_km": 474.533542771288,
      "latitude_deg": 1.1776672989576787e-05,
      "longitude_deg": 113.95037972617568,
      "height_km": 475.97728796900384,
      "semi_major_axis_km": 6853.378359688277,
      "eccentricity": 0.00010328,
      "inclination_deg": 53.1589,
      "raan_deg": 205.58,
      "arg_perigee_deg": 76.7373,
      "mean_anomaly_deg": 283.3743,
      "mean_motion_rev_day": 15.30191195
    }
  ]
}